NORAD_CAT_ID,OBJECT_NAME,OBJECT_TYPE,EPOCH,MEAN_MOTION,ECCENTRICITY,INCLINATION,RA_OF_ASC_NODE,ARG_OF_PERICENTER,MEAN_ANOMALY,BSTAR,MEAN_MOTION_DOT,MEAN_MOTION_DDOT,TLE_LINE0,TLE_LINE1,TLE_LINE2,SEMIMAJOR_AXIS,PERIOD,APOGEE,PERIGEE,DECAYED
52868.0,STARLINK-4261,PAYLOAD,2024-08-21 16:44:20,15.08829413,0.0001133,53.2167,40.4956,111.6113,248.5,4.626e-05,4.48e-06,0.0,0 STARLINK-4261,1 52868U 22062AQ  24234.69746442  .00000448  00000-0  46260-4 0  9996,2 52868  53.2167  40.4956 0001133 111.6113 248.5000 15.08829413120637,6917.913,95.438,540.562,538.994,0.0
